start=new Date('2022-10-18T00:00:00.000Z').valueOf();
sats=[{"SITE":"AFWTR","MEAN_MOTION_DOT":"0.00000981","FILE":"3620294","EPHEMERIS_TYPE":"0","TIME_SYSTEM":"UTC","CENTER_NAME":"EARTH","DECAY_DATE":null,"RA_OF_ASC_NODE":"40.8623","SEMIMAJOR_AXIS":"6917.876","ECCENTRICITY":"0.00021190","EPOCH":"2022-10-17T18:20:14.263872","ELEMENT_SET_NO":"999","INCLINATION":"53.2177","ARG_OF_PERICENTER":"38.1548","BSTAR":"0.00007973000000","TLE_LINE1":"1 50188U 21125AJ  22290.76405398  .00000981  00000-0  79730-4 0  9998","COUNTRY_CODE":"US","CLASSIFICATION_TYPE":"U","OBJECT_TYPE":"PAYLOAD","REV_AT_EPOCH":"4974","OBJECT_NAME":"STARLINK-3275","PERIOD":"95.437","APOAPSIS":"541.207","MEAN_MOTION":"15.08841414","RCS_SIZE":"LARGE","MEAN_ELEMENT_THEORY":"SGP4","LAUNCH_DATE":"2021-12-18","MEAN_MOTION_DDOT":"0.0000000000000","NORAD_CAT_ID":"50188","PERIAPSIS":"538.275","OBJECT_ID":"2021-125AJ","REF_FRAME":"TEME","MEAN_ANOMALY":"321.9594","GP_ID":"215449577","TLE_LINE2":"2 50188  53.2177  40.8623 0002119  38.1548 321.9594 15.08841414 49747"},{"NORAD_CAT_ID":"50189","MEAN_MOTION_DDOT":"0.0000000000000","PERIAPSIS":"538.410","OBJECT_ID":"2021-125AK","REF_FRAME":"TEME","GP_ID":"215450329","TLE_LINE2":"2 50189  53.2198  51.1643 0001938  42.6679 317.4463 15.08838159 49591","MEAN_ANOMALY":"317.4463","PERIOD":"95.438","APOAPSIS":"541.092","MEAN_MOTION":"15.08838159","RCS_SIZE":"LARGE","MEAN_ELEMENT_THEORY":"SGP4","LAUNCH_DATE":"2021-12-18","CLASSIFICATION_TYPE":"U","OBJECT_TYPE":"PAYLOAD","REV_AT_EPOCH":"4959","OBJECT_NAME":"STARLINK-3276","FILE":"3620294","CENTER_NAME":"EARTH","EPHEMERIS_TYPE":"0","TIME_SYSTEM":"UTC","MEAN_MOTION_DOT":"0.00000137","SITE":"AFWTR","RA_OF_ASC_NODE":"51.1643","SEMIMAJOR_AXIS":"6917.886","DECAY_DATE":null,"ECCENTRICITY":"0.00019380","INCLINATION":"53.2198","ELEMENT_SET_NO":"999","EPOCH":"2022-10-17T16:48:50.064480","ARG_OF_PERICENTER":"42.6679","BSTAR":"0.00002671000000","TLE_LINE1":"1 50189U 21125AK  22290.70057945  .00000137  00000-0  26710-4 0  9997","COUNTRY_CODE":"US"},{"CLASSIFICATION_TYPE":"U","OBJECT_TYPE":"PAYLOAD","REV_AT_EPOCH":"4967","OBJECT_NAME":"STARLINK-3268","SITE":"AFWTR","MEAN_MOTION_DOT":"0.00016840","FILE":"3620294","TIME_SYSTEM":"UTC","EPHEMERIS_TYPE":"0","CENTER_NAME":"EARTH","DECAY_DATE":null,"RA_OF_ASC_NODE":"41.5423","SEMIMAJOR_AXIS":"6917.826","EPOCH":"2022-10-17T14:48:17.305344","ELEMENT_SET_NO":"999","INCLINATION":"53.2188","ECCENTRICITY":"0.00022350","ARG_OF_PERICENTER":"39.0032","BSTAR":"0.00107310000000","COUNTRY_CODE":"US","TLE_LINE1":"1 50190U 21125AL  22290.61686696  .00016840  00000-0  10731-2 0  9992","MEAN_MOTION_DDOT":"0.0000000000000","NORAD_CAT_ID":"50190","PERIAPSIS":"538.145","OBJECT_ID":"2021-125AL","REF_FRAME":"TEME","MEAN_ANOMALY":"321.1121","GP_ID":"215450566","TLE_LINE2":"2 50190  53.2188  41.5423 0002235  39.0032 321.1121 15.08857677 49673","PERIOD":"95.436","APOAPSIS":"541.237","MEAN_MOTION":"15.08857677","RCS_SIZE":"LARGE","MEAN_ELEMENT_THEORY":"SGP4","LAUNCH_DATE":"2021-12-18"},{"RA_OF_ASC_NODE":"61.1877","SEMIMAJOR_AXIS":"6917.885","DECAY_DATE":null,"FILE":"3620294","CENTER_NAME":"EARTH","TIME_SYSTEM":"UTC","EPHEMERIS_TYPE":"0","SITE":"AFWTR","MEAN_MOTION_DOT":"-0.00000349","BSTAR":"-0.00000384190000","TLE_LINE1":"1 50191U 21125AM  22290.69229828 -.00000349  00000-0 -38419-5 0  9996","COUNTRY_CODE":"US","ELEMENT_SET_NO":"999","EPOCH":"2022-10-17T16:36:54.571392","INCLINATION":"53.2174","ECCENTRICITY":"0.00021450","ARG_OF_PERICENTER":"39.2008","OBJECT_TYPE":"PAYLOAD","CLASSIFICATION_TYPE":"U","OBJECT_NAME":"STARLINK-3273","REV_AT_EPOCH":"4940","APOAPSIS":"541.234","MEAN_MOTION":"15.08838489","PERIOD":"95.438","LAUNCH_DATE":"2021-12-18","RCS_SIZE":"LARGE","MEAN_ELEMENT_THEORY":"SGP4","PERIAPSIS":"538.266","MEAN_MOTION_DDOT":"0.0000000000000","NORAD_CAT_ID":"50191","GP_ID":"215449828","TLE_LINE2":"2 50191  53.2174  61.1877 0002145  39.2008 320.9139 15.08838489 49402","MEAN_ANOMALY":"320.9139","OBJECT_ID":"2021-125AM","REF_FRAME":"TEME"},{"BSTAR":"-0.00002069300000","TLE_LINE1":"1 50192U 21125AN  22290.67942144 -.00000617  00000-0 -20693-4 0  9990","COUNTRY_CODE":"US","EPOCH":"2022-10-17T16:18:22.012416","INCLINATION":"53.2188","ECCENTRICITY":"0.00021560","ELEMENT_SET_NO":"999","ARG_OF_PERICENTER":"33.6009","RA_OF_ASC_NODE":"41.2566","SEMIMAJOR_AXIS":"6917.920","DECAY_DATE":null,"TIME_SYSTEM":"UTC","FILE":"3620294","CENTER_NAME":"EARTH","EPHEMERIS_TYPE":"0","MEAN_MOTION_DOT":"-0.00000617","SITE":"AFWTR","OBJECT_NAME":"STARLINK-3259","REV_AT_EPOCH":"4968","OBJECT_TYPE":"PAYLOAD","CLASSIFICATION_TYPE":"U","LAUNCH_DATE":"2021-12-18","RCS_SIZE":"LARGE","MEAN_ELEMENT_THEORY":"SGP4","APOAPSIS":"541.276","MEAN_MOTION":"15.08827134","PERIOD":"95.438","GP_ID":"215450078","TLE_LINE2":"2 50192  53.2188  41.2566 0002156  33.6009 326.5120 15.08827134 49680","MEAN_ANOMALY":"326.5120","OBJECT_ID":"2021-125AN","REF_FRAME":"TEME","PERIAPSIS":"538.293","MEAN_MOTION_DDOT":"0.0000000000000","NORAD_CAT_ID":"50192"},{"NORAD_CAT_ID":"50193","MEAN_MOTION_DDOT":"0.0000000000000","PERIAPSIS":"538.219","OBJECT_ID":"2021-125AP","REF_FRAME":"TEME","GP_ID":"215450830","TLE_LINE2":"2 50193  53.2195  40.9089 0002200  34.8277 325.2859 15.08841465 49740","MEAN_ANOMALY":"325.2859","PERIOD":"95.437","APOAPSIS":"541.263","MEAN_MOTION":"15.08841465","RCS_SIZE":"LARGE","MEAN_ELEMENT_THEORY":"SGP4","LAUNCH_DATE":"2021-12-18","CLASSIFICATION_TYPE":"U","OBJECT_TYPE":"PAYLOAD","REV_AT_EPOCH":"4974","OBJECT_NAME":"STARLINK-3261","FILE":"3620294","EPHEMERIS_TYPE":"0","TIME_SYSTEM":"UTC","CENTER_NAME":"EARTH","MEAN_MOTION_DOT":"-0.00000819","SITE":"AFWTR","RA_OF_ASC_NODE":"40.9089","SEMIMAJOR_AXIS":"6917.876","DECAY_DATE":null,"EPOCH":"2022-10-17T18:09:38.384928","ELEMENT_SET_NO":"999","INCLINATION":"53.2195","ECCENTRICITY":"0.00022000","ARG_OF_PERICENTER":"34.8277","BSTAR":"-0.00003332300000","TLE_LINE1":"1 50193U 21125AP  22290.75669427 -.00000819  00000-0 -33323-4 0  9998","COUNTRY_CODE":"US"},{"CLASSIFICATION_TYPE":"U","OBJECT_TYPE":"PAYLOAD","REV_AT_EPOCH":"4975","OBJECT_NAME":"STARLINK-3269","TIME_SYSTEM":"UTC","FILE":"3620294","CENTER_NAME":"EARTH","EPHEMERIS_TYPE":"0","SITE":"AFWTR","MEAN_MOTION_DOT":"0.00001100","RA_OF_ASC_NODE":"40.6760","SEMIMAJOR_AXIS":"6917.847","DECAY_DATE":null,"ECCENTRICITY":"0.00021240","INCLINATION":"53.2195","EPOCH":"2022-10-17T19:23:49.143552","ELEMENT_SET_NO":"999","ARG_OF_PERICENTER":"34.7214","BSTAR":"0.00008718400000","COUNTRY_CODE":"US","TLE_LINE1":"1 50194U 21125AQ  22290.80820768  .00001100  00000-0  87184-4 0  9998","MEAN_MOTION_DDOT":"0.0000000000000","NORAD_CAT_ID":"50194","PERIAPSIS":"538.243","OBJECT_ID":"2021-125AQ","REF_FRAME":"TEME","GP_ID":"215451067","TLE_LINE2":"2 50194  53.2195  40.6760 0002124  34.7214 325.3916 15.08850907 49756","MEAN_ANOMALY":"325.3916","PERIOD":"95.437","APOAPSIS":"541.181","MEAN_MOTION":"15.08850907","RCS_SIZE":"LARGE","MEAN_ELEMENT_THEORY":"SGP4","LAUNCH_DATE":"2021-12-18"},{"DECAY_DATE":null,"RA_OF_ASC_NODE":"40.9298","SEMIMAJOR_AXIS":"6917.904","SITE":"AFWTR","MEAN_MOTION_DOT":"0.00015093","CENTER_NAME":"EARTH","FILE":"3620294","EPHEMERIS_TYPE":"0","TIME_SYSTEM":"UTC","BSTAR":"0.00096456000000","COUNTRY_CODE":"US","TLE_LINE1":"1 50195U 21125AR  22290.75303787  .00015093  00000-0  96456-3 0  9997","INCLINATION":"53.2186","EPOCH":"2022-10-17T18:04:22.471968","ECCENTRICITY":"0.00018940","ELEMENT_SET_NO":"999","ARG_OF_PERICENTER":"43.2320","OBJECT_TYPE":"PAYLOAD","CLASSIFICATION_TYPE":"U","OBJECT_NAME":"STARLINK-3266","REV_AT_EPOCH":"4969","APOAPSIS":"541.079","MEAN_MOTION":"15.08832427","PERIOD":"95.438","LAUNCH_DATE":"2021-12-18","RCS_SIZE":"LARGE","MEAN_ELEMENT_THEORY":"SGP4","PERIAPSIS":"538.458","MEAN_MOTION_DDOT":"0.0000000000000","NORAD_CAT_ID":"50195","MEAN_ANOMALY":"316.8821","GP_ID":"215449328","TLE_LINE2":"2 50195  53.2186  40.9298 0001894  43.2320 316.8821 15.08832427 49692","OBJECT_ID":"2021-125AR","REF_FRAME":"TEME"},{"CLASSIFICATION_TYPE":"U","OBJECT_TYPE":"PAYLOAD","REV_AT_EPOCH":"4967","OBJECT_NAME":"STARLINK-3263","FILE":"3620294","CENTER_NAME":"EARTH","TIME_SYSTEM":"UTC","EPHEMERIS_TYPE":"0","SITE":"AFWTR","MEAN_MOTION_DOT":"0.00000222","RA_OF_ASC_NODE":"41.6138","SEMIMAJOR_AXIS":"6917.885","DECAY_DATE":null,"ECCENTRICITY":"0.00021830","EPOCH":"2022-10-17T14:27:04.399200","ELEMENT_SET_NO":"999","INCLINATION":"53.2179","ARG_OF_PERICENTER":"36.7853","BSTAR":"0.00003204700000","TLE_LINE1":"1 50196U 21125AS  22290.60213425  .00000222  00000-0  32047-4 0  9996","COUNTRY_CODE":"US","MEAN_MOTION_DDOT":"0.0000000000000","NORAD_CAT_ID":"50196","PERIAPSIS":"538.240","OBJECT_ID":"2021-125AS","REF_FRAME":"TEME","GP_ID":"215449578","TLE_LINE2":"2 50196  53.2179  41.6138 0002183  36.7853 323.3289 15.08838516 49670","MEAN_ANOMALY":"323.3289","PERIOD":"95.438","APOAPSIS":"541.260","MEAN_MOTION":"15.08838516","RCS_SIZE":"LARGE","MEAN_ELEMENT_THEORY":"SGP4","LAUNCH_DATE":"2021-12-18"},{"PERIOD":"95.438","APOAPSIS":"541.144","MEAN_MOTION":"15.08839325","RCS_SIZE":"LARGE","MEAN_ELEMENT_THEORY":"SGP4","LAUNCH_DATE":"2021-12-18","MEAN_MOTION_DDOT":"0.0000000000000","NORAD_CAT_ID":"50197","PERIAPSIS":"538.351","OBJECT_ID":"2021-125AT","REF_FRAME":"TEME","MEAN_ANOMALY":"318.6235","GP_ID":"215450330","TLE_LINE2":"2 50197  53.2171  41.5954 0002019  41.4910 318.6235 15.08839325 49726","SITE":"AFWTR","MEAN_MOTION_DOT":"0.00000196","TIME_SYSTEM":"UTC","FILE":"3620294","EPHEMERIS_TYPE":"0","CENTER_NAME":"EARTH","DECAY_DATE":null,"RA_OF_ASC_NODE":"41.5954","SEMIMAJOR_AXIS":"6917.882","EPOCH":"2022-10-17T14:32:22.142112","ECCENTRICITY":"0.00020190","INCLINATION":"53.2171","ELEMENT_SET_NO":"999","ARG_OF_PERICENTER":"41.4910","BSTAR":"0.00003042100000","COUNTRY_CODE":"US","TLE_LINE1":"1 50197U 21125AT  22290.60581183  .00000196  00000-0  30421-4 0  9990","CLASSIFICATION_TYPE":"U","OBJECT_TYPE":"PAYLOAD","REV_AT_EPOCH":"4972","OBJECT_NAME":"STARLINK-3267"}];
